STARLINK-36085          
1 67035U 25294F   26002.86240783  .00160846  00000+0  26879-2 0  9999
2 67035  43.0003  54.8717 0001009 277.2608  82.8137 15.50617513  4677
STARLINK-36125          
1 67036U 25294G   26002.86274604  .00138151  00000+0  23170-2 0  9994
2 67036  43.0003  54.8768 0002209 277.9599  82.1011 15.50606791  4673
STARLINK-35732          
1 67037U 25294H   26002.86206533  .00178285  00000+0  29712-2 0  9991
2 67037  43.0001  54.8684 0000824 292.3527  67.7246 15.50624796  4676
STARLINK-35775          
1 67038U 25294J   26002.86172271  .00178519  00000+0  29752-2 0  9997
2 67038  43.0001  54.8650 0000759 290.2411  69.8368 15.50622745  4687
STARLINK-35705          
1 67039U 25294K   26002.86103494  .00164799  00000+0  27519-2 0  9993
2 67039  43.0001  54.8587 0000909 271.9581  88.1175 15.50623030  4675
STARLINK-35786          
1 67040U 25294L   26002.91668981 -.02058384  00000+0 -49928-1 0  9991
2 67040  43.0007  54.5826 0001404 257.9408  32.9721 15.43839148  3505
STARLINK-35765          
1 67041U 25294M   26002.86069053  .00090546  00000+0  15305-2 0  9996
2 67041  43.0000  54.8563 0001052 264.0460  96.0280 15.50596328  4674
STARLINK-35773          
1 67042U 25294N   26002.91668981 -.02087870  00000+0 -44173-1 0  9992
2 67042  43.0008  54.5309 0001302 261.2990  50.6059 15.47826380  3694
STARLINK-35901          
1 67043U 25294P   26002.86000565  .00173731  00000+0  28972-2 0  9993
2 67043  43.0000  54.8516 0000931 272.4132  87.6621 15.50624445  4675
STARLINK-35884          
1 67044U 25294Q   26002.91668981 -.00142111  00000+0 -34506-2 0  9992
2 67044  43.0012  54.6940 0001560 270.2722 334.7738 15.40766959  3690
STARLINK-35891          
1 67045U 25294R   26002.85931902  .00105664  00000+0  17815-2 0  9996
2 67045  43.0000  54.8460 0000984 268.8665  91.2082 15.50597796  4673
STARLINK-35721          
1 67046U 25294S   26002.85899858 -.00831615  00000+0 -15758-1 0  9997
2 67046  43.0001  54.8426 0004621 310.7686  49.2773 15.50083500  4672
