CCSDS_OMM_VERS = 2.0
CREATION_DATE  = 
ORIGINATOR     = 

OBJECT_NAME    = STARLINK-36085
OBJECT_ID      = 2025-294F
CENTER_NAME    = EARTH
REF_FRAME      = TEME
TIME_SYSTEM    = UTC
MEAN_ELEMENT_THEORY = SGP/SGP4

EPOCH          = 2026-01-02T20:41:52.036512
MEAN_MOTION    = 15.50617513
ECCENTRICITY   = .00010097
INCLINATION    = 43.0003
RA_OF_ASC_NODE = 54.8717
ARG_OF_PERICENTER = 277.2608
MEAN_ANOMALY   = 82.8137

EPHEMERIS_TYPE = 0
CLASSIFICATION_TYPE = U
NORAD_CAT_ID   = 67035
ELEMENT_SET_NO = 999
REV_AT_EPOCH   = 467
BSTAR          = .26878871E-2
MEAN_MOTION_DOT = .160846E-2
MEAN_MOTION_DDOT = 0

CCSDS_OMM_VERS = 2.0
CREATION_DATE  = 
ORIGINATOR     = 

OBJECT_NAME    = STARLINK-36125
OBJECT_ID      = 2025-294G
CENTER_NAME    = EARTH
REF_FRAME      = TEME
TIME_SYSTEM    = UTC
MEAN_ELEMENT_THEORY = SGP/SGP4

EPOCH          = 2026-01-02T20:42:21.257856
MEAN_MOTION    = 15.50606791
ECCENTRICITY   = .00022092
INCLINATION    = 43.0003
RA_OF_ASC_NODE = 54.8768
ARG_OF_PERICENTER = 277.9599
MEAN_ANOMALY   = 82.1011

EPHEMERIS_TYPE = 0
CLASSIFICATION_TYPE = U
NORAD_CAT_ID   = 67036
ELEMENT_SET_NO = 999
REV_AT_EPOCH   = 467
BSTAR          = .23170173E-2
MEAN_MOTION_DOT = .138151E-2
MEAN_MOTION_DDOT = 0

CCSDS_OMM_VERS = 2.0
CREATION_DATE  = 
ORIGINATOR     = 

OBJECT_NAME    = STARLINK-35732
OBJECT_ID      = 2025-294H
CENTER_NAME    = EARTH
REF_FRAME      = TEME
TIME_SYSTEM    = UTC
MEAN_ELEMENT_THEORY = SGP/SGP4

EPOCH          = 2026-01-02T20:41:22.444512
MEAN_MOTION    = 15.50624796
ECCENTRICITY   = .00008248
INCLINATION    = 43.0001
RA_OF_ASC_NODE = 54.8684
ARG_OF_PERICENTER = 292.3527
MEAN_ANOMALY   = 67.7246

EPHEMERIS_TYPE = 0
CLASSIFICATION_TYPE = U
NORAD_CAT_ID   = 67037
ELEMENT_SET_NO = 999
REV_AT_EPOCH   = 467
BSTAR          = .29712312E-2
MEAN_MOTION_DOT = .178285E-2
MEAN_MOTION_DDOT = 0

CCSDS_OMM_VERS = 2.0
CREATION_DATE  = 
ORIGINATOR     = 

OBJECT_NAME    = STARLINK-35775
OBJECT_ID      = 2025-294J
CENTER_NAME    = EARTH
REF_FRAME      = TEME
TIME_SYSTEM    = UTC
MEAN_ELEMENT_THEORY = SGP/SGP4

EPOCH          = 2026-01-02T20:40:52.842144
MEAN_MOTION    = 15.50622745
ECCENTRICITY   = .00007594
INCLINATION    = 43.0001
RA_OF_ASC_NODE = 54.8650
ARG_OF_PERICENTER = 290.2411
MEAN_ANOMALY   = 69.8368

EPHEMERIS_TYPE = 0
CLASSIFICATION_TYPE = U
NORAD_CAT_ID   = 67038
ELEMENT_SET_NO = 999
REV_AT_EPOCH   = 468
BSTAR          = .29752422E-2
MEAN_MOTION_DOT = .178519E-2
MEAN_MOTION_DDOT = 0

CCSDS_OMM_VERS = 2.0
CREATION_DATE  = 
ORIGINATOR     = 

OBJECT_NAME    = STARLINK-35705
OBJECT_ID      = 2025-294K
CENTER_NAME    = EARTH
REF_FRAME      = TEME
TIME_SYSTEM    = UTC
MEAN_ELEMENT_THEORY = SGP/SGP4

EPOCH          = 2026-01-02T20:39:53.418816
MEAN_MOTION    = 15.50623030
ECCENTRICITY   = .00009096
INCLINATION    = 43.0001
RA_OF_ASC_NODE = 54.8587
ARG_OF_PERICENTER = 271.9581
MEAN_ANOMALY   = 88.1175

EPHEMERIS_TYPE = 0
CLASSIFICATION_TYPE = U
NORAD_CAT_ID   = 67039
ELEMENT_SET_NO = 999
REV_AT_EPOCH   = 467
BSTAR          = .27518695E-2
MEAN_MOTION_DOT = .164799E-2
MEAN_MOTION_DDOT = 0

CCSDS_OMM_VERS = 2.0
CREATION_DATE  = 
ORIGINATOR     = 

OBJECT_NAME    = STARLINK-35786
OBJECT_ID      = 2025-294L
CENTER_NAME    = EARTH
REF_FRAME      = TEME
TIME_SYSTEM    = UTC
MEAN_ELEMENT_THEORY = SGP/SGP4

EPOCH          = 2026-01-02T22:00:01.999584
MEAN_MOTION    = 15.43839148
ECCENTRICITY   = .0001404
INCLINATION    = 43.0007
RA_OF_ASC_NODE = 54.5826
ARG_OF_PERICENTER = 257.9408
MEAN_ANOMALY   = 32.9721

EPHEMERIS_TYPE = 0
CLASSIFICATION_TYPE = U
NORAD_CAT_ID   = 67040
ELEMENT_SET_NO = 999
REV_AT_EPOCH   = 350
BSTAR          = -.4992831E-1
MEAN_MOTION_DOT = -.2058384E-1
MEAN_MOTION_DDOT = 0

CCSDS_OMM_VERS = 2.0
CREATION_DATE  = 
ORIGINATOR     = 

OBJECT_NAME    = STARLINK-35765
OBJECT_ID      = 2025-294M
CENTER_NAME    = EARTH
REF_FRAME      = TEME
TIME_SYSTEM    = UTC
MEAN_ELEMENT_THEORY = SGP/SGP4

EPOCH          = 2026-01-02T20:39:23.661792
MEAN_MOTION    = 15.50596328
ECCENTRICITY   = .00010522
INCLINATION    = 43.0000
RA_OF_ASC_NODE = 54.8563
ARG_OF_PERICENTER = 264.0460
MEAN_ANOMALY   = 96.0280

EPHEMERIS_TYPE = 0
CLASSIFICATION_TYPE = U
NORAD_CAT_ID   = 67041
ELEMENT_SET_NO = 999
REV_AT_EPOCH   = 467
BSTAR          = .15305061E-2
MEAN_MOTION_DOT = .90546E-3
MEAN_MOTION_DDOT = 0

CCSDS_OMM_VERS = 2.0
CREATION_DATE  = 
ORIGINATOR     = 

OBJECT_NAME    = STARLINK-35773
OBJECT_ID      = 2025-294N
CENTER_NAME    = EARTH
REF_FRAME      = TEME
TIME_SYSTEM    = UTC
MEAN_ELEMENT_THEORY = SGP/SGP4

EPOCH          = 2026-01-02T22:00:01.999584
MEAN_MOTION    = 15.47826380
ECCENTRICITY   = .00013029
INCLINATION    = 43.0008
RA_OF_ASC_NODE = 54.5309
ARG_OF_PERICENTER = 261.2990
MEAN_ANOMALY   = 50.6059

EPHEMERIS_TYPE = 0
CLASSIFICATION_TYPE = U
NORAD_CAT_ID   = 67042
ELEMENT_SET_NO = 999
REV_AT_EPOCH   = 369
BSTAR          = -.44173109E-1
MEAN_MOTION_DOT = -.208787E-1
MEAN_MOTION_DDOT = 0

CCSDS_OMM_VERS = 2.0
CREATION_DATE  = 
ORIGINATOR     = 

OBJECT_NAME    = STARLINK-35901
OBJECT_ID      = 2025-294P
CENTER_NAME    = EARTH
REF_FRAME      = TEME
TIME_SYSTEM    = UTC
MEAN_ELEMENT_THEORY = SGP/SGP4

EPOCH          = 2026-01-02T20:38:24.488160
MEAN_MOTION    = 15.50624445
ECCENTRICITY   = .00009313
INCLINATION    = 43.0000
RA_OF_ASC_NODE = 54.8516
ARG_OF_PERICENTER = 272.4132
MEAN_ANOMALY   = 87.6621

EPHEMERIS_TYPE = 0
CLASSIFICATION_TYPE = U
NORAD_CAT_ID   = 67043
ELEMENT_SET_NO = 999
REV_AT_EPOCH   = 467
BSTAR          = .28972194E-2
MEAN_MOTION_DOT = .173731E-2
MEAN_MOTION_DDOT = 0

CCSDS_OMM_VERS = 2.0
CREATION_DATE  = 
ORIGINATOR     = 

OBJECT_NAME    = STARLINK-35884
OBJECT_ID      = 2025-294Q
CENTER_NAME    = EARTH
REF_FRAME      = TEME
TIME_SYSTEM    = UTC
MEAN_ELEMENT_THEORY = SGP/SGP4

EPOCH          = 2026-01-02T22:00:01.999584
MEAN_MOTION    = 15.40766959
ECCENTRICITY   = .00015605
INCLINATION    = 43.0012
RA_OF_ASC_NODE = 54.6940
ARG_OF_PERICENTER = 270.2722
MEAN_ANOMALY   = 334.7738

EPHEMERIS_TYPE = 0
CLASSIFICATION_TYPE = U
NORAD_CAT_ID   = 67044
ELEMENT_SET_NO = 999
REV_AT_EPOCH   = 369
BSTAR          = -.3450617E-2
MEAN_MOTION_DOT = -.142111E-2
MEAN_MOTION_DDOT = 0

CCSDS_OMM_VERS = 2.0
CREATION_DATE  = 
ORIGINATOR     = 

OBJECT_NAME    = STARLINK-35891
OBJECT_ID      = 2025-294R
CENTER_NAME    = EARTH
REF_FRAME      = TEME
TIME_SYSTEM    = UTC
MEAN_ELEMENT_THEORY = SGP/SGP4

EPOCH          = 2026-01-02T20:37:25.163328
MEAN_MOTION    = 15.50597796
ECCENTRICITY   = .00009847
INCLINATION    = 43.0000
RA_OF_ASC_NODE = 54.8460
ARG_OF_PERICENTER = 268.8665
MEAN_ANOMALY   = 91.2082

EPHEMERIS_TYPE = 0
CLASSIFICATION_TYPE = U
NORAD_CAT_ID   = 67045
ELEMENT_SET_NO = 999
REV_AT_EPOCH   = 467
BSTAR          = .17815412E-2
MEAN_MOTION_DOT = .105664E-2
MEAN_MOTION_DDOT = 0

CCSDS_OMM_VERS = 2.0
CREATION_DATE  = 
ORIGINATOR     = 

OBJECT_NAME    = STARLINK-35721
OBJECT_ID      = 2025-294S
CENTER_NAME    = EARTH
REF_FRAME      = TEME
TIME_SYSTEM    = UTC
MEAN_ELEMENT_THEORY = SGP/SGP4

EPOCH          = 2026-01-02T20:36:57.477312
MEAN_MOTION    = 15.50083500
ECCENTRICITY   = .00046217
INCLINATION    = 43.0001
RA_OF_ASC_NODE = 54.8426
ARG_OF_PERICENTER = 310.7686
MEAN_ANOMALY   = 49.2773

EPHEMERIS_TYPE = 0
CLASSIFICATION_TYPE = U
NORAD_CAT_ID   = 67046
ELEMENT_SET_NO = 999
REV_AT_EPOCH   = 467
BSTAR          = -.15757593E-1
MEAN_MOTION_DOT = -.831615E-2
MEAN_MOTION_DDOT = 0

